{
  "type": "FeatureCollection",
  "features": [
    {
      "type": "Feature",
      "properties": {
        "norad_id": 34036,
        "name": "COSMOS 2251 DEB",
        "group": "cosmos-2251-debris",
        "lat": 28.987364265663896,
        "lon": 178.89134944548763,
        "alt_km": 595.418962611523,
        "timestamp": "2025-12-02T13:52:17.654829+00:00",
        "meta_object_name": "COSMOS 2251 DEB",
        "meta_object_id": "1993-036HX",
        "meta_epoch": "2025-11-30T23:09:20.036736",
        "meta_mean_motion": 14.93557713,
        "meta_eccentricity": 0.00153307,
        "meta_inclination": 74.0215,
        "meta_ra_of_asc_node": 173.0047,
        "meta_arg_of_pericenter": 207.7863,
        "meta_mean_anomaly": 152.2504,
        "meta_ephemeris_type": 0,
        "meta_classification_type": "U",
        "meta_norad_cat_id": 34036,
        "meta_element_set_no": 999,
        "meta_rev_at_epoch": 88394,
        "meta_bstar": 0.0033859171,
        "meta_mean_motion_dot": 0.00035932,
        "meta_mean_motion_ddot": 0,
        "tle_line1": "1 34036U 93036HX  25334.96481524  .00035932  00000+0  33859-2 0  9994",
        "tle_line2": "2 34036  74.0215 173.0047 0015330 207.7863 152.2504 14.93557713883940"
      },
      "geometry": {
        "type": "Point",
        "coordinates": [
          178.89134944548763,
          28.987364265663896
        ]
      }
    },
    {
      "type": "Feature",
      "properties": {
        "norad_id": 34037,
        "name": "COSMOS 2251 DEB",
        "group": "cosmos-2251-debris",
        "lat": 63.423751997539284,
        "lon": -145.824631613984,
        "alt_km": 732.8660816481542,
        "timestamp": "2025-12-02T13:52:17.654839+00:00",
        "meta_object_name": "COSMOS 2251 DEB",
        "meta_object_id": "1993-036HY",
        "meta_epoch": "2025-12-02T06:39:40.457376",
        "meta_mean_motion": 14.34615804,
        "meta_eccentricity": 0.00525094,
        "meta_inclination": 74.0515,
        "meta_ra_of_asc_node": 69.5893,
        "meta_arg_of_pericenter": 122.7513,
        "meta_mean_anomaly": 237.8715,
        "meta_ephemeris_type": 0,
        "meta_classification_type": "U",
        "meta_norad_cat_id": 34037,
        "meta_element_set_no": 999,
        "meta_rev_at_epoch": 87567,
        "meta_bstar": 0.00071884838,
        "meta_mean_motion_dot": 2.038e-05,
        "meta_mean_motion_ddot": 0,
        "tle_line1": "1 34037U 93036HY  25336.27755159  .00002038  00000+0  71885-3 0  9992",
        "tle_line2": "2 34037  74.0515  69.5893 0052509 122.7513 237.8715 14.34615804875675"
      },
      "geometry": {
        "type": "Point",
        "coordinates": [
          -145.824631613984,
          63.423751997539284
        ]
      }
    },
    {
      "type": "Feature",
      "properties": {
        "norad_id": 34040,
        "name": "COSMOS 2251 DEB",
        "group": "cosmos-2251-debris",
        "lat": -71.69084713132601,
        "lon": -36.92779262503098,
        "alt_km": 1193.6624472528274,
        "timestamp": "2025-12-02T13:52:17.654850+00:00",
        "meta_object_name": "COSMOS 2251 DEB",
        "meta_object_id": "1993-036JB",
        "meta_epoch": "2025-12-02T07:20:03.846048",
        "meta_mean_motion": 13.68358464,
        "meta_eccentricity": 0.03428022,
        "meta_inclination": 73.9552,
        "meta_ra_of_asc_node": 83.103,
        "meta_arg_of_pericenter": 38.64,
        "meta_mean_anomaly": 323.8712,
        "meta_ephemeris_type": 0,
        "meta_classification_type": "U",
        "meta_norad_cat_id": 34040,
        "meta_element_set_no": 999,
        "meta_rev_at_epoch": 83457,
        "meta_bstar": 0.0004228049,
        "meta_mean_motion_dot": 5.23e-06,
        "meta_mean_motion_ddot": 0,
        "tle_line1": "1 34040U 93036JB  25336.30560007  .00000523  00000+0  42280-3 0  9990",
        "tle_line2": "2 34040  73.9552  83.1030 0342802  38.6400 323.8712 13.68358464834570"
      },
      "geometry": {
        "type": "Point",
        "coordinates": [
          -36.92779262503098,
          -71.69084713132601
        ]
      }
    },
    {
      "type": "Feature",
      "properties": {
        "norad_id": 34045,
        "name": "COSMOS 2251 DEB",
        "group": "cosmos-2251-debris",
        "lat": 2.1824878669804515,
        "lon": 148.80126889621397,
        "alt_km": 789.9636344033834,
        "timestamp": "2025-12-02T13:52:17.654865+00:00",
        "meta_object_name": "COSMOS 2251 DEB",
        "meta_object_id": "1993-036JG",
        "meta_epoch": "2025-12-02T06:51:05.423616",
        "meta_mean_motion": 14.34059274,
        "meta_eccentricity": 0.00253164,
        "meta_inclination": 74.0386,
        "meta_ra_of_asc_node": 329.9612,
        "meta_arg_of_pericenter": 56.6617,
        "meta_mean_anomaly": 51.2341,
        "meta_ephemeris_type": 0,
        "meta_classification_type": "U",
        "meta_norad_cat_id": 34045,
        "meta_element_set_no": 999,
        "meta_rev_at_epoch": 87883,
        "meta_bstar": 0.0001291355,
        "meta_mean_motion_dot": 3.36e-06,
        "meta_mean_motion_ddot": 0,
        "tle_line1": "1 34045U 93036JG  25336.28547944  .00000336  00000+0  12914-3 0  9990",
        "tle_line2": "2 34045  74.0386 329.9612 0025316  56.6617  51.2341 14.34059274878835"
      },
      "geometry": {
        "type": "Point",
        "coordinates": [
          148.80126889621397,
          2.1824878669804515
        ]
      }
    },
    {
      "type": "Feature",
      "properties": {
        "norad_id": 34046,
        "name": "COSMOS 2251 DEB",
        "group": "cosmos-2251-debris",
        "lat": 67.88126995758974,
        "lon": 74.20039616879426,
        "alt_km": 690.4924797330141,
        "timestamp": "2025-12-02T13:52:17.654880+00:00",
        "meta_object_name": "COSMOS 2251 DEB",
        "meta_object_id": "1993-036JH",
        "meta_epoch": "2025-12-02T03:40:09.994080",
        "meta_mean_motion": 14.46329608,
        "meta_eccentricity": 0.00749496,
        "meta_inclination": 74.0406,
        "meta_ra_of_asc_node": 30.2382,
        "meta_arg_of_pericenter": 116.7965,
        "meta_mean_anomaly": 265.8384,
        "meta_ephemeris_type": 0,
        "meta_classification_type": "U",
        "meta_norad_cat_id": 34046,
        "meta_element_set_no": 999,
        "meta_rev_at_epoch": 87673,
        "meta_bstar": 0.0013365936,
        "meta_mean_motion_dot": 4.94e-05,
        "meta_mean_motion_ddot": 0,
        "tle_line1": "1 34046U 93036JH  25336.15289345  .00004940  00000+0  13366-2 0  9991",
        "tle_line2": "2 34046  74.0406  30.2382 0074949 116.7965 265.8384 14.46329608876736"
      },
      "geometry": {
        "type": "Point",
        "coordinates": [
          74.20039616879426,
          67.88126995758974
        ]
      }
    },
    {
      "type": "Feature",
      "properties": {
        "norad_id": 34050,
        "name": "COSMOS 2251 DEB",
        "group": "cosmos-2251-debris",
        "lat": -14.420170380864128,
        "lon": 23.27700087945306,
        "alt_km": 960.1059927876522,
        "timestamp": "2025-12-02T13:52:17.654890+00:00",
        "meta_object_name": "COSMOS 2251 DEB",
        "meta_object_id": "1993-036JM",
        "meta_epoch": "2025-12-02T05:38:36.299904",
        "meta_mean_motion": 13.9615269,
        "meta_eccentricity": 0.0214728,
        "meta_inclination": 74.0888,
        "meta_ra_of_asc_node": 28.071,
        "meta_arg_of_pericenter": 95.0804,
        "meta_mean_anomaly": 329.8635,
        "meta_ephemeris_type": 0,
        "meta_classification_type": "U",
        "meta_norad_cat_id": 34050,
        "meta_element_set_no": 999,
        "meta_rev_at_epoch": 85285,
        "meta_bstar": 0.00070685173,
        "meta_mean_motion_dot": 1.157e-05,
        "meta_mean_motion_ddot": 0,
        "tle_line1": "1 34050U 93036JM  25336.23514236  .00001157  00000+0  70685-3 0  9990",
        "tle_line2": "2 34050  74.0888  28.0710 0214728  95.0804 329.8635 13.96152690852853"
      },
      "geometry": {
        "type": "Point",
        "coordinates": [
          23.27700087945306,
          -14.420170380864128
        ]
      }
    },
    {
      "type": "Feature",
      "properties": {
        "norad_id": 34053,
        "name": "COSMOS 2251 DEB",
        "group": "cosmos-2251-debris",
        "lat": -54.30529319867585,
        "lon": 102.33958071933276,
        "alt_km": 1392.2962668714245,
        "timestamp": "2025-12-02T13:52:17.654900+00:00",
        "meta_object_name": "COSMOS 2251 DEB",
        "meta_object_id": "1993-036JQ",
        "meta_epoch": "2025-12-02T05:35:34.513440",
        "meta_mean_motion": 13.49133553,
        "meta_eccentricity": 0.04216092,
        "meta_inclination": 73.8444,
        "meta_ra_of_asc_node": 259.1005,
        "meta_arg_of_pericenter": 49.4174,
        "meta_mean_anomaly": 314.2829,
        "meta_ephemeris_type": 0,
        "meta_classification_type": "U",
        "meta_norad_cat_id": 34053,
        "meta_element_set_no": 999,
        "meta_rev_at_epoch": 82542,
        "meta_bstar": 0.0010058321,
        "meta_mean_motion_dot": 1.074e-05,
        "meta_mean_motion_ddot": 0,
        "tle_line1": "1 34053U 93036JQ  25336.23303835  .00001074  00000+0  10058-2 0  9999",
        "tle_line2": "2 34053  73.8444 259.1005 0421609  49.4174 314.2829 13.49133553825427"
      },
      "geometry": {
        "type": "Point",
        "coordinates": [
          102.33958071933276,
          -54.30529319867585
        ]
      }
    }
  ]
}